satname,norad_id,inclination_deg,eccentricity,mean_motion_rev_per_day,perigee_km,apogee_km,l1,l2
STARLINK-1309,45414,53.0604,0.000652,15.65745754,366.69433398062574,375.495332291036,1 45414U 20019BG  26133.35738865  .00027458  00000+0  27067-3 0  9990,2 45414  53.0604 168.2527 0006520 334.2557  25.8133 15.65745754340133
STARLINK-1316,45415,53.1568,0.0006258,15.36351196,452.6326407012175,461.1873855428403,1 45415U 20019BH  26133.86052839  .00031126  00000+0  87218-3 0  9998,2 45415  53.1568 185.1870 0006258 353.7299   6.3625 15.36351196339993
STARLINK-1286,45417,53.046,0.0003634,15.56197236,396.21195012606677,401.1373368285458,1 45417U 20019BK  26133.83898310  .00032200  00000+0  45632-3 0  9997,2 45417  53.0460 176.4190 0003634 339.9340  20.1527 15.56197236340353
STARLINK-1308,45419,53.0479,0.0008099,15.62543701,374.8386239635047,385.78596012675916,1 45419U 20019BM  26133.59200662  .00069587  00000+0  76449-3 0  9997,2 45419  53.0479 197.5558 0008099 320.4202  39.6219 15.62543701339786
STARLINK-1329,45531,53.0415,0.0005135,15.69985983,355.47762085294744,362.39659596228194,1 45531U 20025A   26133.25316669  .00038805  00000+0  31978-3 0  9994,2 45531  53.0415 124.2916 0005135  51.5396 308.6081 15.69985983335567
STARLINK-1338,45532,53.0435,0.0004751,15.65310663,369.1382907376528,375.5525991568411,1 45532U 20025B   26133.38877411  .00030564  00000+0  30594-3 0  9993,2 45532  53.0435 129.3349 0004751  30.9967 329.1328 15.65310663335503
STARLINK-1350,45535,53.0713,0.0001522,15.37648609,452.024984241164,454.10440203655617,1 45535U 20025E   26133.29847440  .00006785  00000+0  19117-3 0  9991,2 45535  53.0713  89.3367 0001522  60.7103 299.4052 15.37648609336097
STARLINK-1362,45538,53.1585,0.000301,15.34670856,459.8394668688161,463.95716812995215,1 45538U 20025H   26133.49113390 -.00163058  00000+0 -48765-2 0  9995,2 45538  53.1585 159.0503 0003010  58.5598 301.5699 15.34670856335112
STARLINK-1368,45540,53.1561,0.000423,15.35112972,457.6921779936929,463.4777367696379,1 45540U 20025K   26133.37486482  .00023747  00000+0  69574-3 0  9990,2 45540  53.1561 159.9704 0004230  34.2648 325.8627 15.35112972335080
STARLINK-1371,45542,53.0447,0.0006923,15.57769545,389.4254047325512,398.80226323728675,1 45542U 20025M   26133.24991652  .00056865  00000+0  75228-3 0  9998,2 45542  53.0447 138.4354 0006923  27.8793 332.2588 15.57769545335364
STARLINK-1372,45543,53.1573,0.000408,15.35669201,456.1439809691019,461.723030501782,1 45543U 20025N   26133.47222988  .00028716  00000+0  82377-3 0  9990,2 45543  53.1573 159.1071 0004080  26.4682 333.6529 15.35669201334202
STARLINK-1373,45544,53.0447,0.0004198,15.67034848,364.5611264522149,370.2246733561742,1 45544U 20025P   26133.37235924  .00030908  00000+0  28873-3 0  9991,2 45544  53.0447 134.9849 0004198   6.0980 354.0085 15.67034848335428
STARLINK-1327,45555,53.0408,0.0005267,15.64777719,370.3218256604541,377.43439837945516,1 45555U 20025AA  26133.31192553  .00029567  00000+0  30246-3 0  9993,2 45555  53.0408 112.0081 0005267  10.0667 350.0452 15.64777719335733
STARLINK-1356,45564,53.0455,0.0004129,15.54502647,400.79857991431163,406.39893730377025,1 45564U 20025AK  26133.34525223  .00051681  00000+0  77303-3 0  9997,2 45564  53.0455 123.6695 0004129  15.4648 344.6487 15.54502647335572
STARLINK-1357,45565,53.0447,0.0007945,15.66579946,363.3383161549673,374.0590380458807,1 45565U 20025AL  26133.27180716  .00035679  00000+0  33808-3 0  9995,2 45565  53.0447  82.4569 0007945  45.5836 314.5828 15.66579946336157
STARLINK-1361,45567,53.0438,0.0002306,15.58213957,391.2647308732048,394.38749906182875,1 45567U 20025AN  26133.94032449  .00075950  00000+0  98445-3 0  9994,2 45567  53.0438 119.3234 0002306  17.5649 342.5441 15.58213957335693
STARLINK-1363,45568,53.0318,0.0001782,16.00592754,271.59096193895493,273.9613473872769,1 45568U 20025AP  26133.06639413  .00267222  41290-4  49733-3 0  9994,2 45568  53.0318  71.3442 0001782 152.4412 207.6713 16.00592754336274
STARLINK-1366,45569,53.0331,0.0001002,15.96002489,284.8548179919553,286.19021535909815,1 45569U 20025AQ  26134.00002315  .00177221  23527-4  42942-3 0  9992,2 45569  53.0331  68.4124 0001002 111.2903 326.3582 15.96002489  5986
STARLINK-1376,45570,53.1571,0.0005641,15.35984637,454.14115135407883,461.8536782008314,1 45570U 20025AR  26133.32470370  .00027944  00000+0  79377-3 0  9992,2 45570  53.1571 136.2629 0005641  27.3826 332.7473 15.35984637335414
STARLINK-1320,45572,53.0462,0.000346,15.80272263,327.34917048428997,331.9909729779274,1 45572U 20025AT  26133.68346968  .00084250  00000+0  43796-3 0  9997,2 45572  53.0462  22.2785 0003460 210.3106 149.7715 15.80272263337044
STARLINK-1321,45573,53.0419,0.0005433,15.5944522,385.58490008656645,392.93835543549176,1 45573U 20025AU  26133.19668972  .00052805  00000+0  65687-3 0  9990,2 45573  53.0419 107.0248 0005433  41.8664 318.2763 15.59445220335495
STARLINK-1331,45578,53.0466,0.0007061,15.58966952,385.8662114344188,395.4250862911422,1 45578U 20025AZ  26133.92160995  .00064840  00000+0  81827-3 0  9994,2 45578  53.0466 110.3462 0007061  23.7113 336.4223 15.58966952335823
STARLINK-1333,45580,53.1549,0.000315,15.33005262,464.69566663728983,469.00800960530705,1 45580U 20025BB  26133.38776019  .00030867  00000+0  96221-3 0  9993,2 45580  53.1549 136.9362 0003150  50.0797 310.0481 15.33005262335418
STARLINK-1335,45581,53.1546,0.0004582,15.34508642,459.2460272884455,465.5146773901288,1 45581U 20025BC  26133.37799200  .00023952  00000+0  71516-3 0  9997,2 45581  53.1546 133.9903 0004582  43.5995 316.5369 15.34508642335441
STARLINK-1337,45582,53.0457,0.0007592,15.70942598,351.08912320071795,361.31454328511427,1 45582U 20025BD  26133.90215572  .00047989  00000+0  37821-3 0  9999,2 45582  53.0457 101.9097 0007592  31.9863 328.1614 15.70942598335927
STARLINK-1347,45586,53.039,0.0005125,15.65816637,367.4322672238177,374.35002107156924,1 45586U 20025BH  26133.10404254  .00036604  00000+0  35774-3 0  9999,2 45586  53.0390  75.3499 0005125  60.3752 299.7772 15.65816637336220
STARLINK-1364,45589,53.0436,0.0005299,15.6023134,383.4034351522823,390.5731149187659,1 45589U 20025BL  26133.20689868  .00034791  00000+0  42311-3 0  9999,2 45589  53.0436 111.1580 0005299   4.0499 356.0556 15.60231340335738
STARLINK-1365,45590,53.047,0.000554,15.55139764,397.9903277049352,405.5024384934095,1 45590U 20025BM  26133.38804129  .00050832  00000+0  74283-3 0  9996,2 45590  53.0470 142.8905 0005540   3.7715 356.3336 15.55139764335321
STARLINK-1443,45660,53.1314,0.0004358,15.30537428,471.22150349081403,477.1940071795643,1 45660U 20035D   26133.92723327  .00037530  00000+0  12594-2 0  9991,2 45660  53.1314 122.7295 0004358  24.9847 335.1364 15.30537428328738
STARLINK-1446,45663,53.0224,0.0004581,15.46161356,424.849916913925,431.08567012574804,1 45663U 20035G   26133.78263377  .00020605  00000+0  42079-3 0  9999,2 45663  53.0224  49.4585 0004581 100.0751 260.0772 15.46161356329735
STARLINK-1448,45665,53.0438,0.0007422,15.65261659,367.47602415640995,377.49664943755124,1 45665U 20035J   26133.89811014  .00038817  00000+0  38714-3 0  9995,2 45665  53.0438  95.4070 0007422  24.9461 335.1911 15.65261659329099
STARLINK-1451,45668,53.0508,0.0002667,15.13071427,524.9982034759114,528.6813180801109,1 45668U 20035M   26133.40641463  .00012939  00000+0  73850-3 0  9991,2 45668  53.0508 133.1365 0002667  41.2993 318.8201 15.13071427328538
STARLINK-1452,45669,53.0264,8.17e-05,15.54531982,402.9593804092474,404.0675020913477,1 45669U 20035N   26133.10169370  .00065049  00000+0  96870-3 0  9998,2 45669  53.0264  72.5794 0000817  81.9012 278.2091 15.54531982329357
STARLINK-1453,45670,53.0412,0.0003345,15.65675916,369.0378490662324,373.5532194316438,1 45670U 20035P   26133.93608580  .00045460  00000+0  44514-3 0  9995,2 45670  53.0412  55.5934 0003345 105.5979 254.5405 15.65675916329551
STARLINK-1454,45671,53.0431,0.0003917,15.63429219,375.1137996878706,380.40636946392715,1 45671U 20035Q   26133.30428941  .00077518  00000+0  82215-3 0  9997,2 45671  53.0431  99.2802 0003917  10.6090 349.5005 15.63429219328985
STARLINK-1456,45673,53.0424,0.0007149,15.61457421,378.6125666989037,388.2802786766615,1 45673U 20035S   26133.18337555  .00073223  00000+0  83859-3 0  9999,2 45673  53.0424  94.1749 0007149  56.8938 303.2760 15.61457421329066
STARLINK-1457,45674,53.0333,0.0004035,16.13390224,234.88987112419272,240.22873804199116,1 45674U 20035T   26133.97773238  .00740279  32771-3  61104-3 0  9994,2 45674  53.0333  49.1762 0004035 225.3848 134.6858 16.13390224329727
STARLINK-1458,45675,53.047,0.0006133,15.52655579,404.81360908911665,413.13868207348696,1 45675U 20035U   26133.31502263  .00053760  00000+0  85891-3 0  9998,2 45675  53.0470 106.4401 0006133  15.1387 344.9804 15.52655579328861
STARLINK-1460,45676,53.1568,0.0004304,15.3284013,464.39713903294523,470.28972859037094,1 45676U 20035V   26133.29530435  .00027862  00000+0  87443-3 0  9997,2 45676  53.1568 124.5255 0004304  55.6454 304.4954 15.32840130328618
STARLINK-1392,45677,53.1531,0.0003482,15.35954407,455.70673850346884,460.4674849748835,1 45677U 20035W   26133.23619432  .00029927  00000+0  85016-3 0  9995,2 45677  53.1531 124.0272 0003482  59.6490 300.4857 15.35954407328651
STARLINK-1394,45679,53.0409,0.0007889,15.61316535,378.51863858303204,389.18770667740864,1 45679U 20035Y   26133.11758013  .00068153  00000+0  78549-3 0  9990,2 45679  53.0409  84.7274 0007889  62.5734 297.6080 15.61316535329186
STARLINK-1402,45685,53.0411,0.0007531,15.54714095,397.87698516832734,408.090709388498,1 45685U 20035AE  26133.13627690  .00053310  00000+0  79028-3 0  9997,2 45685  53.0411  74.1362 0007531  83.9682 276.2186 15.54714095329343
STARLINK-1404,45686,53.1576,0.0005198,15.41722273,437.4814821776463,444.5706841188867,1 45686U 20035AF  26133.32913173  .00040317  00000+0  94440-3 0  9991,2 45686  53.1576 106.3099 0005198  70.3100 289.8467 15.41722273328911
